ONEWEB-0156             
1 48052U 21025L   23253.77482318 -.00000347  00000+0 -98538-3 0  9995
2 48052  87.9012 161.2563 0001880  76.5702 283.5636 13.13469385120948
ONEWEB-0161             
1 48053U 21025M   23254.28055853  .00000311  00000+0  81659-3 0  9998
2 48053  87.9081 161.1350 0001906  68.2750 291.8582 13.13472121120942
ONEWEB-0158             
1 48054U 21025N   23254.24460915 -.00000139  00000+0 -41593-3 0  9997
2 48054  87.9005 161.1705 0001899  83.4899 276.6446 13.13471869121058
ONEWEB-0157             
1 48055U 21025P   23253.81080147  .00000370  00000+0  97832-3 0  9997
2 48055  87.9086 161.2316 0001804  67.3806 292.7513 13.13472946120940
ONEWEB-0162             
1 48056U 21025Q   23254.30597405 -.00000218  00000+0 -63199-3 0  9995
2 48056  87.9085 161.1325 0001811  74.2997 285.8332 13.13468636120959
ONEWEB-0155             
1 48057U 21025R   23254.25095714  .00000023  00000+0  28411-4 0  9997
2 48057  87.9086 161.1496 0001912  74.4279 285.7061 13.13471682121119
ONEWEB-0149             
1 48058U 21025S   23254.27211194  .00000436  00000+0  11591-2 0  9999
2 48058  87.9087 161.1434 0001450  71.6868 288.4419 13.13471999120929
ONEWEB-0148             
1 48059U 21025T   23254.23614105  .00001033  00000+0  27939-2 0  9992
2 48059  87.9082 161.1590 0001312  66.4980 293.6287 13.13464844121037
